CCSDS_OMM_VERS = 2.0
CREATION_DATE  = 
ORIGINATOR     = 

OBJECT_NAME    = CZ-2C R/B
OBJECT_ID      = 2022-132E
CENTER_NAME    = EARTH
REF_FRAME      = TEME
TIME_SYSTEM    = UTC
MEAN_ELEMENT_THEORY = SGP/SGP4

EPOCH          = 2026-01-20T06:04:31.985472
MEAN_MOTION    = 15.57521489
ECCENTRICITY   = .00166393
INCLINATION    = 97.2946
RA_OF_ASC_NODE = 22.2665
ARG_OF_PERICENTER = 270.8509
MEAN_ANOMALY   = 89.0840

EPHEMERIS_TYPE = 0
CLASSIFICATION_TYPE = U
NORAD_CAT_ID   = 54039
ELEMENT_SET_NO = 999
REV_AT_EPOCH   = 18282
BSTAR          = .79037614E-3
MEAN_MOTION_DOT = .5874E-3
MEAN_MOTION_DDOT = 0

CCSDS_OMM_VERS = 2.0
CREATION_DATE  = 
ORIGINATOR     = 

OBJECT_NAME    = GSLV R/B
OBJECT_ID      = 2022-138AN
CENTER_NAME    = EARTH
REF_FRAME      = TEME
TIME_SYSTEM    = UTC
MEAN_ELEMENT_THEORY = SGP/SGP4

EPOCH          = 2026-01-20T04:15:29.119104
MEAN_MOTION    = 14.96364968
ECCENTRICITY   = .0020584
INCLINATION    = 87.3836
RA_OF_ASC_NODE = 182.5987
ARG_OF_PERICENTER = 333.7757
MEAN_ANOMALY   = 26.2430

EPHEMERIS_TYPE = 0
CLASSIFICATION_TYPE = U
NORAD_CAT_ID   = 54149
ELEMENT_SET_NO = 999
REV_AT_EPOCH   = 17667
BSTAR          = .42224043E-3
MEAN_MOTION_DOT = .4825E-4
MEAN_MOTION_DDOT = 0

CCSDS_OMM_VERS = 2.0
CREATION_DATE  = 
ORIGINATOR     = 

OBJECT_NAME    = XRISM
OBJECT_ID      = 2023-137A
CENTER_NAME    = EARTH
REF_FRAME      = TEME
TIME_SYSTEM    = UTC
MEAN_ELEMENT_THEORY = SGP/SGP4

EPOCH          = 2026-01-20T06:59:26.575584
MEAN_MOTION    = 15.10820034
ECCENTRICITY   = .00080359
INCLINATION    = 31.0011
RA_OF_ASC_NODE = 236.5524
ARG_OF_PERICENTER = 275.0167
MEAN_ANOMALY   = 84.9554

EPHEMERIS_TYPE = 0
CLASSIFICATION_TYPE = U
NORAD_CAT_ID   = 57800
ELEMENT_SET_NO = 999
REV_AT_EPOCH   = 13046
BSTAR          = .44607772E-3
MEAN_MOTION_DOT = .77E-4
MEAN_MOTION_DDOT = 0

CCSDS_OMM_VERS = 2.0
CREATION_DATE  = 
ORIGINATOR     = 

OBJECT_NAME    = ACS3
OBJECT_ID      = 2024-077B
CENTER_NAME    = EARTH
REF_FRAME      = TEME
TIME_SYSTEM    = UTC
MEAN_ELEMENT_THEORY = SGP/SGP4

EPOCH          = 2026-01-19T20:35:34.278432
MEAN_MOTION    = 13.87295570
ECCENTRICITY   = .00539164
INCLINATION    = 97.2370
RA_OF_ASC_NODE = 331.9399
ARG_OF_PERICENTER = 237.7526
MEAN_ANOMALY   = 121.8405

EPHEMERIS_TYPE = 0
CLASSIFICATION_TYPE = U
NORAD_CAT_ID   = 59588
ELEMENT_SET_NO = 999
REV_AT_EPOCH   = 8742
BSTAR          = -.25632936E-3
MEAN_MOTION_DOT = -.334E-5
MEAN_MOTION_DDOT = 0

CCSDS_OMM_VERS = 2.0
CREATION_DATE  = 
ORIGINATOR     = 

OBJECT_NAME    = SZ-21 MODULE
OBJECT_ID      = 2025-246C
CENTER_NAME    = EARTH
REF_FRAME      = TEME
TIME_SYSTEM    = UTC
MEAN_ELEMENT_THEORY = SGP/SGP4

EPOCH          = 2026-01-19T17:37:14.644992
MEAN_MOTION    = 15.64766041
ECCENTRICITY   = .0002737
INCLINATION    = 41.4760
RA_OF_ASC_NODE = 143.8781
ARG_OF_PERICENTER = 205.5931
MEAN_ANOMALY   = 154.4774

EPHEMERIS_TYPE = 0
CLASSIFICATION_TYPE = U
NORAD_CAT_ID   = 66515
ELEMENT_SET_NO = 999
REV_AT_EPOCH   = 1039
BSTAR          = .287037E-3
MEAN_MOTION_DOT = .28507E-3
MEAN_MOTION_DDOT = 0

