CZ-2C R/B               
1 54039U 22132E   26020.25314798  .00058740  00000+0  79038-3 0  9993
2 54039  97.2946  22.2665 0016639 270.8509  89.0840 15.57521489182826
GSLV R/B                
1 54149U 22138AN  26020.17742036  .00004825  00000+0  42224-3 0  9994
2 54149  87.3836 182.5987 0020584 333.7757  26.2430 14.96364968176674
XRISM                   
1 57800U 23137A   26020.29127981  .00007700  00000+0  44608-3 0  9993
2 57800  31.0011 236.5524 0008035 275.0167  84.9554 15.10820034130462
ACS3                    
1 59588U 24077B   26019.85803563 -.00000334  00000+0 -25633-3 0  9994
2 59588  97.2370 331.9399 0053916 237.7526 121.8405 13.87295570 87427
SZ-21 MODULE            
1 66515U 25246C   26019.73419728  .00028507  00000+0  28704-3 0  9996
2 66515  41.4760 143.8781 0002737 205.5931 154.4774 15.64766041 10398
